OBJECT_NAME,OBJECT_ID,EPOCH,MEAN_MOTION,ECCENTRICITY,INCLINATION,RA_OF_ASC_NODE,ARG_OF_PERICENTER,MEAN_ANOMALY,EPHEMERIS_TYPE,CLASSIFICATION_TYPE,NORAD_CAT_ID,ELEMENT_SET_NO,REV_AT_EPOCH,BSTAR,MEAN_MOTION_DOT,MEAN_MOTION_DDOT
PERSEUS-M1,2014-033AF,2026-06-14T08:38:27.964032,14.95623959,.0010513,97.9644,109.4456,312.2620,47.7708,0,U,40039,999,65021,.10597E-3,.1117E-4,0
POLYITAN-1,2014-033AJ,2026-06-14T07:28:06.957696,15.33167050,.0008451,98.0938,191.3000,149.3870,210.7865,0,U,40042,999,65315,.5776E-3,.18464E-3,0
TIGRISAT,2014-033AK,2026-06-14T08:29:04.088256,14.85153048,.0050677,97.7824,315.4300,84.2807,276.4183,0,U,40043,999,64520,.24722E-3,.211E-4,0
AEROCUBE 6A,2014-033AM,2026-06-14T08:26:40.386048,14.98083113,.0039142,97.7231,332.3304,27.6491,332.6801,0,U,40045,999,64619,.49753E-3,.5921E-4,0
AEROCUBE 6B,2014-033AN,2026-06-14T10:10:05.515680,14.99547273,.0038523,97.7233,332.1856,18.8590,341.4050,0,U,40046,999,64634,.43797E-3,.5406E-4,0
CANX-4,2014-034C,2026-06-14T12:25:05.278080,14.81260290,.0013347,98.3125,40.7324,25.3372,334.8491,0,U,40055,999,64413,.1155E-3,.844E-5,0
CANX-5,2014-034D,2026-06-14T09:08:19.958784,14.81277276,.0013369,98.3127,40.6342,25.8843,334.3034,0,U,40056,999,63492,.11735E-3,.859E-5,0
UKUBE-1,2014-037F,2026-06-14T10:59:04.262208,15.13517247,.000253,98.4229,168.4428,134.4762,225.6674,0,U,40074,999,64814,.44745E-3,.794E-4,0
BRITE-PL2 (HEWELIUSZ),2014-049B,2026-06-14T13:28:18.843744,14.94585543,.0015205,97.9095,277.5411,116.2621,244.0164,0,U,40119,999,64105,.1339E-3,.1392E-4,0
AEROCUBE 5C,2015-058B,2026-06-14T11:43:43.545216,14.91442860,.0130637,64.7679,270.9847,64.3247,297.1289,0,U,40965,999,36525,.20255E-3,.2211E-4,0
AEROCUBE 7,2015-058C,2026-06-14T11:49:32.367072,14.95710398,.012036,64.7630,253.2554,62.7598,298.5718,0,U,40966,999,36555,.25132E-3,.3063E-4,0
FOX-1A (AO-85),2015-058D,2026-06-14T11:14:24.646848,14.90958301,.0130281,64.7761,287.4327,57.6479,303.7167,0,U,40967,999,11316,.21121E-3,.2281E-4,0
SINOD-D 1,2015-058E,2026-06-14T12:54:31.592160,14.95891444,.011887,64.7761,267.2089,54.1346,307.0737,0,U,40968,999,11626,.25902E-3,.3168E-4,0
SNAP-3 ALICE,2015-058G,2026-06-14T06:55:27.503328,15.59474399,.0028838,64.7497,113.9459,14.5147,345.6819,0,U,40970,999,11643,.13736E-2,.113024E-2,0
LMRST-SAT,2015-058H,2026-06-14T11:45:39.792096,14.90579336,.0131932,64.7766,283.6979,59.6772,301.7313,0,U,40971,999,11315,.19616E-3,.2091E-4,0
SNAP-3 EDDIE,2015-058J,2026-06-14T03:39:58.967712,15.60680536,.0028488,64.7423,105.1621,18.6640,341.5544,0,U,40972,999,11855,.15035182E-2,.129815E-2,0
PROPCUBE 3,2015-058K,2026-06-14T12:46:26.189184,14.94244940,.012391,64.7690,260.8306,60.9641,300.3821,0,U,40973,999,11440,.2307E-3,.2707E-4,0
BISONSAT,2015-058L,2026-06-14T09:28:28.553088,15.16135124,.0078766,64.7578,182.6726,48.4099,312.3740,0,U,40974,999,11519,.53594E-3,.11042E-3,0
SNAP-3 JIMI,2015-058M,2026-06-14T11:02:11.699232,15.02278035,.0106006,64.7644,228.4016,56.4833,304.6357,0,U,40975,999,11381,.29459E-3,.4217E-4,0
PROPCUBE 1 (FLORA),2015-058N,2026-06-14T12:13:53.803200,14.89211311,.0130614,64.7756,303.5340,61.9718,299.4533,0,U,40976,999,11586,.21483E-3,.2214E-4,0
SINOD-D 3,2015-058P,2026-06-14T11:55:03.202176,14.94001353,.0119114,64.7736,284.2205,59.1970,302.0803,0,U,40977,999,11435,.25987E-3,.3016E-4,0
HORYU-4,2016-012D,2026-06-14T11:54:51.309216,15.93820636,.0004716,30.9847,98.7619,253.7574,106.2569,0,U,41340,999,57038,.10359E-2,.399139E-2,.56274E-4
RAVAN,2016-067B,2026-06-14T05:04:28.199136,15.54424943,.000483,97.9896,54.4417,40.1746,319.9862,0,U,41849,999,52723,.76835E-3,.50604E-3,0
CELTEE 1,2016-067C,2026-06-14T02:41:49.848864,15.19656415,.00007519,98.0677,31.4701,121.1330,238.9976,0,U,41850,999,52541,.28186833E-3,.5934E-4,0
OPTICUBE 04,2016-067D,2026-06-14T11:51:38.835072,15.09648676,.0016804,98.0698,17.6376,123.9215,236.3614,0,U,41851,999,52476,.11471E-3,.178E-4,0
AEROCUBE 8D,2016-067E,2026-06-14T09:34:01.263072,15.24363385,.0004547,98.0686,35.3582,130.0584,230.1051,0,U,41852,999,52564,.29875E-3,.7236E-4,0
AEROCUBE 8C,2016-067F,2026-06-14T08:36:08.980992,15.24611351,.0006707,98.0560,32.5465,76.7997,283.3986,0,U,41853,999,52563,.30189E-3,.737E-4,0
CORVUS BC2,2017-042X,2026-06-14T09:42:53.341056,15.06278341,.0014186,97.4051,326.8627,119.3255,240.9392,0,U,42846,999,48664,.2716E-3,.3937E-4,0
CORVUS BC1,2017-042Y,2026-06-14T09:35:34.982880,15.06449056,.0013212,97.4087,327.6701,97.7075,262.5653,0,U,42847,999,48667,.26281E-3,.3825E-4,0
MAKERSAT 0,2017-073D,2026-06-13T21:56:29.924736,15.31998671,.0105274,97.4636,47.4083,284.8512,74.1088,0,U,43016,999,46596,.51447E-3,.18871E-3,0
