PERSEUS-M1              
1 40039U 14033AF  26165.36004588  .00001117  00000+0  10597-3 0  9995
2 40039  97.9644 109.4456 0010513 312.2620  47.7708 14.95623959650212
POLYITAN-1              
1 40042U 14033AJ  26165.31119164  .00018464  00000+0  57760-3 0  9997
2 40042  98.0938 191.3000 0008451 149.3870 210.7865 15.33167050653153
TIGRISAT                
1 40043U 14033AK  26165.35351954  .00002110  00000+0  24722-3 0  9990
2 40043  97.7824 315.4300 0050677  84.2807 276.4183 14.85153048645207
AEROCUBE 6A             
1 40045U 14033AM  26165.35185632  .00005921  00000+0  49753-3 0  9994
2 40045  97.7231 332.3304 0039142  27.6491 332.6801 14.98083113646197
AEROCUBE 6B             
1 40046U 14033AN  26165.42367495  .00005406  00000+0  43797-3 0  9992
2 40046  97.7233 332.1856 0038523  18.8590 341.4050 14.99547273646348
CANX-4                  
1 40055U 14034C   26165.51742220  .00000844  00000+0  11550-3 0  9999
2 40055  98.3125  40.7324 0013347  25.3372 334.8491 14.81260290644137
CANX-5                  
1 40056U 14034D   26165.38078656  .00000859  00000+0  11735-3 0  9991
2 40056  98.3127  40.6342 0013369  25.8843 334.3034 14.81277276634927
UKUBE-1                 
1 40074U 14037F   26165.45768822  .00007940  00000+0  44745-3 0  9998
2 40074  98.4229 168.4428 0002530 134.4762 225.6674 15.13517247648142
BRITE-PL2 (HEWELIUSZ)   
1 40119U 14049B   26165.56132921  .00001392  00000+0  13390-3 0  9995
2 40119  97.9095 277.5411 0015205 116.2621 244.0164 14.94585543641050
AEROCUBE 5C             
1 40965U 15058B   26165.48869844  .00002211  00000+0  20255-3 0  9996
2 40965  64.7679 270.9847 0130637  64.3247 297.1289 14.91442860365256
AEROCUBE 7              
1 40966U 15058C   26165.49273573  .00003063  00000+0  25132-3 0  9991
2 40966  64.7630 253.2554 0120360  62.7598 298.5718 14.95710398365559
FOX-1A (AO-85)          
1 40967U 15058D   26165.46834082  .00002281  00000+0  21121-3 0  9992
2 40967  64.7761 287.4327 0130281  57.6479 303.7167 14.90958301113164
SINOD-D 1               
1 40968U 15058E   26165.53786565  .00003168  00000+0  25902-3 0  9999
2 40968  64.7761 267.2089 0118870  54.1346 307.0737 14.95891444116264
SNAP-3 ALICE            
1 40970U 15058G   26165.28851277  .00113024  00000+0  13736-2 0  9991
2 40970  64.7497 113.9459 0028838  14.5147 345.6819 15.59474399116439
LMRST-SAT               
1 40971U 15058H   26165.49004389  .00002091  00000+0  19616-3 0  9994
2 40971  64.7766 283.6979 0131932  59.6772 301.7313 14.90579336113154
SNAP-3 EDDIE            
1 40972U 15058J   26165.15276583  .00129815  00000+0  15035-2 0  9999
2 40972  64.7423 105.1621 0028488  18.6640 341.5544 15.60680536118557
PROPCUBE 3              
1 40973U 15058K   26165.53224756  .00002707  00000+0  23070-3 0  9996
2 40973  64.7690 260.8306 0123910  60.9641 300.3821 14.94244940114402
BISONSAT                
1 40974U 15058L   26165.39477492  .00011042  00000+0  53594-3 0  9994
2 40974  64.7578 182.6726 0078766  48.4099 312.3740 15.16135124115199
SNAP-3 JIMI             
1 40975U 15058M   26165.45985763  .00004217  00000+0  29459-3 0  9996
2 40975  64.7644 228.4016 0106006  56.4833 304.6357 15.02278035113818
PROPCUBE 1 (FLORA)      
1 40976U 15058N   26165.50965050  .00002214  00000+0  21483-3 0  9994
2 40976  64.7756 303.5340 0130614  61.9718 299.4533 14.89211311115865
SINOD-D 3               
1 40977U 15058P   26165.49656484  .00003016  00000+0  25987-3 0  9995
2 40977  64.7736 284.2205 0119114  59.1970 302.0803 14.94001353114353
HORYU-4                 
1 41340U 16012D   26165.49642719  .00399139  56274-4  10359-2 0  9996
2 41340  30.9847  98.7619 0004716 253.7574 106.2569 15.93820636570381
RAVAN                   
1 41849U 16067B   26165.21143749  .00050604  00000+0  76835-3 0  9993
2 41849  97.9896  54.4417 0004830  40.1746 319.9862 15.54424943527236
CELTEE 1                
1 41850U 16067C   26165.11238251  .00005934  00000+0  28187-3 0  9990
2 41850  98.0677  31.4701 0000751 121.1330 238.9976 15.19656415525411
OPTICUBE 04             
1 41851U 16067D   26165.49419948  .00001780  00000+0  11471-3 0  9999
2 41851  98.0698  17.6376 0016804 123.9215 236.3614 15.09648676524764
AEROCUBE 8D             
1 41852U 16067E   26165.39862573  .00007236  00000+0  29875-3 0  9994
2 41852  98.0686  35.3582 0004547 130.0584 230.1051 15.24363385525640
AEROCUBE 8C             
1 41853U 16067F   26165.35843728  .00007370  00000+0  30189-3 0  9991
2 41853  98.0560  32.5465 0006707  76.7997 283.3986 15.24611351525630
CORVUS BC2              
1 42846U 17042X   26165.40478404  .00003937  00000+0  27160-3 0  9999
2 42846  97.4051 326.8627 0014186 119.3255 240.9392 15.06278341486646
CORVUS BC1              
1 42847U 17042Y   26165.39971045  .00003825  00000+0  26281-3 0  9996
2 42847  97.4087 327.6701 0013212  97.7075 262.5653 15.06449056486672
MAKERSAT 0              
1 43016U 17073D   26164.91423524  .00018871  00000+0  51447-3 0  9999
2 43016  97.4636  47.4083 0105274 284.8512  74.1088 15.31998671465964
